[
    {
        "Altitude(m)": 622200.1511658131,
        "Argument of Periapsis(deg)": 0.0,
        "Eccentricity": 0.0,
        "Inclination(deg)": 60.0,
        "Latitude(deg)": -52.16265957048757,
        "Longitude(deg)": -77.63922747409104,
        "Mean Anomaly(deg)": -65.45450000000001,
        "RAAN(deg)": 70.0,
        "Satellite Name": "Test1 326",
        "Satellite Number": 326,
        "Semi-Major Axis(m)": 6980739.136638005,
        "Time(s)": 0
    },
    {
        "Altitude(m)": 622058.3189733189,
        "Argument of Periapsis(deg)": 0.00010418945913296404,
        "Eccentricity": 0.0,
        "Inclination(deg)": 60.0,
        "Latitude(deg)": -51.799409012786086,
        "Longitude(deg)": -76.87116779428305,
        "Mean Anomaly(deg)": -64.83439385453812,
        "RAAN(deg)": 69.99957995086027,
        "Satellite Name": "Test1 326",
        "Satellite Number": 326,
        "Semi-Major Axis(m)": 6980739.136638005,
        "Time(s)": 10
    },
    {
        "Altitude(m)": 621913.7534816472,
        "Argument of Periapsis(deg)": 0.0002083789182659281,
        "Eccentricity": 0.0,
        "Inclination(deg)": 60.0,
        "Latitude(deg)": -51.43064686108107,
        "Longitude(deg)": -76.11608697323952,
        "Mean Anomaly(deg)": -64.21428770907633,
        "RAAN(deg)": 69.9991599017205,
        "Satellite Name": "Test1 326",
        "Satellite Number": 326,
        "Semi-Major Axis(m)": 6980739.136638005,
        "Time(s)": 20
    },
    {
        "Altitude(m)": 621766.5111301158,
        "Argument of Periapsis(deg)": 0.00031256837739889213,
        "Eccentricity": 0.0,
        "Inclination(deg)": 60.0,
        "Latitude(deg)": -51.056530237096865,
        "Longitude(deg)": -75.3737953117362,
        "Mean Anomaly(deg)": -63.594181563614484,
        "RAAN(deg)": 69.99873985258077,
        "Satellite Name": "Test1 326",
        "Satellite Number": 326,
        "Semi-Major Axis(m)": 6980739.136638005,
        "Time(s)": 30
    },
    {
        "Altitude(m)": 621616.6493744447,
        "Argument of Periapsis(deg)": 0.0004167578365318562,
        "Eccentricity": 0.0,
        "Inclination(deg)": 60.0,
        "Latitude(deg)": -50.67721257198794,
        "Longitude(deg)": -74.6440953449866,
        "Mean Anomaly(deg)": -62.97407541815265,
        "RAAN(deg)": 69.99831980344102,
        "Satellite Name": "Test1 326",
        "Satellite Number": 326,
        "Semi-Major Axis(m)": 6980739.136638005,
        "Time(s)": 40
    },
    {
        "Altitude(m)": 621464.226662173,
        "Argument of Periapsis(deg)": 0.0005209472956648203,
        "Eccentricity": 0.0,
        "Inclination(deg)": 60.0,
        "Latitude(deg)": -50.29284357933455,
        "Longitude(deg)": -73.92678389249824,
        "Mean Anomaly(deg)": -62.353969272690804,
        "RAAN(deg)": 69.99789975430129,
        "Satellite Name": "Test1 326",
        "Satellite Number": 326,
        "Semi-Major Axis(m)": 6980739.136638005,
        "Time(s)": 50
    },
    {
        "Altitude(m)": 621309.3024075927,
        "Argument of Periapsis(deg)": 0.0006251367547977843,
        "Eccentricity": 0.0,
        "Inclination(deg)": 60.0,
        "Latitude(deg)": -49.903569242692825,
        "Longitude(deg)": -73.22165252570338,
        "Mean Anomaly(deg)": -61.73386312722902,
        "RAAN(deg)": 69.99747970516154,
        "Satellite Name": "Test1 326",
        "Satellite Number": 326,
        "Semi-Major Axis(m)": 6980739.136638005,
        "Time(s)": 60
    },
    {
        "Altitude(m)": 621151.9369662789,
        "Argument of Periapsis(deg)": 0.0007293262139307483,
        "Eccentricity": 0.0,
        "Inclination(deg)": 60.0,
        "Latitude(deg)": -49.50953181629623,
        "Longitude(deg)": -72.52848796764717,
        "Mean Anomaly(deg)": -61.113756981767175,
        "RAAN(deg)": 69.9970596560218,
        "Satellite Name": "Test1 326",
        "Satellite Number": 326,
        "Semi-Major Axis(m)": 6980739.136638005,
        "Time(s)": 70
    },
    {
        "Altitude(m)": 620992.191609171,
        "Argument of Periapsis(deg)": 0.0008335156730637124,
        "Eccentricity": 0.0,
        "Inclination(deg)": 60.0,
        "Latitude(deg)": -49.110869837576914,
        "Longitude(deg)": -71.847073939432,
        "Mean Anomaly(deg)": -60.49365083630539,
        "RAAN(deg)": 69.99663960688207,
        "Satellite Name": "Test1 326",
        "Satellite Number": 326,
        "Semi-Major Axis(m)": 6980739.136638005,
        "Time(s)": 80
    },
    {
        "Altitude(m)": 620830.1284962682,
        "Argument of Periapsis(deg)": 0.0009377051321966765,
        "Eccentricity": 0.0,
        "Inclination(deg)": 60.0,
        "Latitude(deg)": -48.70771815024525,
        "Longitude(deg)": -71.17719142982068,
        "Mean Anomaly(deg)": -59.873544690843495,
        "RAAN(deg)": 69.99621955774232,
        "Satellite Name": "Test1 326",
        "Satellite Number": 326,
        "Semi-Major Axis(m)": 6980739.136638005,
        "Time(s)": 90
    },
    {
        "Altitude(m)": 620665.8106499099,
        "Argument of Periapsis(deg)": 0.0010418945913296407,
        "Eccentricity": 0.0,
        "Inclination(deg)": 60.0,
        "Latitude(deg)": -48.300207936745714,
        "Longitude(deg)": -70.51861890329334,
        "Mean Anomaly(deg)": -59.25343854538164,
        "RAAN(deg)": 69.99579950860256,
        "Satellite Name": "Test1 326",
        "Satellite Number": 326,
        "Semi-Major Axis(m)": 6980739.136638005,
        "Time(s)": 100
    },
    {
        "Altitude(m)": 620499.3019276464,
        "Argument of Periapsis(deg)": 0.0011460840504626045,
        "Eccentricity": 0.0,
        "Inclination(deg)": 60.0,
        "Latitude(deg)": -47.88846675898144,
        "Longitude(deg)": -69.87113396204977,
        "Mean Anomaly(deg)": -58.63333239991985,
        "RAAN(deg)": 69.99537945946282,
        "Satellite Name": "Test1 326",
        "Satellite Number": 326,
        "Semi-Major Axis(m)": 6980739.136638005,
        "Time(s)": 110
    },
    {
        "Altitude(m)": 620330.6669947495,
        "Argument of Periapsis(deg)": 0.0012502735095955685,
        "Eccentricity": 0.0,
        "Inclination(deg)": 60.0,
        "Latitude(deg)": -47.47261860627564,
        "Longitude(deg)": -69.23451343896099,
        "Mean Anomaly(deg)": -58.01322625445802,
        "RAAN(deg)": 69.99495941032308,
        "Satellite Name": "Test1 326",
        "Satellite Number": 326,
        "Semi-Major Axis(m)": 6980739.136638005,
        "Time(s)": 120
    },
    {
        "Altitude(m)": 620159.9712963519,
        "Argument of Periapsis(deg)": 0.0013544629687285324,
        "Eccentricity": 0.0,
        "Inclination(deg)": 60.0,
        "Latitude(deg)": -47.0527839496161,
        "Longitude(deg)": -68.60853343719441,
        "Mean Anomaly(deg)": -57.39312010899617,
        "RAAN(deg)": 69.99453936118334,
        "Satellite Name": "Test1 326",
        "Satellite Number": 326,
        "Semi-Major Axis(m)": 6980739.136638005,
        "Time(s)": 130
    },
    {
        "Altitude(m)": 619987.2810292125,
        "Argument of Periapsis(deg)": 0.0014586524278614966,
        "Eccentricity": 0.0,
        "Inclination(deg)": 60.0,
        "Latitude(deg)": -46.629079801300044,
        "Longitude(deg)": -67.99297083228406,
        "Mean Anomaly(deg)": -56.773013963534325,
        "RAAN(deg)": 69.9941193120436,
        "Satellite Name": "Test1 326",
        "Satellite Number": 326,
        "Semi-Major Axis(m)": 6980739.136638005,
        "Time(s)": 140
    },
    {
        "Altitude(m)": 619812.6631131538,
        "Argument of Periapsis(deg)": 0.0015628418869944607,
        "Eccentricity": 0.0,
        "Inclination(deg)": 60.0,
        "Latitude(deg)": -46.20161977916835,
        "Longitude(deg)": -67.38760321380178,
        "Mean Anomaly(deg)": -56.15290781807254,
        "RAAN(deg)": 69.99369926290386,
        "Satellite Name": "Test1 326",
        "Satellite Number": 326,
        "Semi-Major Axis(m)": 6980739.136638005,
        "Time(s)": 150
    },
    {
        "Altitude(m)": 619636.1851621389,
        "Argument of Periapsis(deg)": 0.0016670313461274247,
        "Eccentricity": 0.0,
        "Inclination(deg)": 60.0,
        "Latitude(deg)": -45.770514174687165,
        "Longitude(deg)": -66.79220878239457,
        "Mean Anomaly(deg)": -55.532801672610695,
        "RAAN(deg)": 69.99327921376411,
        "Satellite Name": "Test1 326",
        "Satellite Number": 326,
        "Semi-Major Axis(m)": 6980739.136638005,
        "Time(s)": 160
    },
    {
        "Altitude(m)": 619457.9154550567,
        "Argument of Periapsis(deg)": 0.0017712208052603888,
        "Eccentricity": 0.0,
        "Inclination(deg)": 60.0,
        "Latitude(deg)": -45.335870024201114,
        "Longitude(deg)": -66.20656771790983,
        "Mean Anomaly(deg)": -54.91269552714891,
        "RAAN(deg)": 69.99285916462438,
        "Satellite Name": "Test1 326",
        "Satellite Number": 326,
        "Semi-Major Axis(m)": 6980739.136638005,
        "Time(s)": 170
    },
    {
        "Altitude(m)": 619277.9229061581,
        "Argument of Periapsis(deg)": 0.001875410264393353,
        "Eccentricity": 0.0,
        "Inclination(deg)": 60.0,
        "Latitude(deg)": -44.89779118274076,
        "Longitude(deg)": -65.63046199563522,
        "Mean Anomaly(deg)": -54.292589381687016,
        "RAAN(deg)": 69.99243911548463,
        "Satellite Name": "Test1 326",
        "Satellite Number": 326,
        "Semi-Major Axis(m)": 6980739.136638005,
        "Time(s)": 180
    },
    {
        "Altitude(m)": 619096.277035215,
        "Argument of Periapsis(deg)": 0.0019795997235263173,
        "Eccentricity": 0.0,
        "Inclination(deg)": 60.0,
        "Latitude(deg)": -44.45637839982985,
        "Longitude(deg)": -65.06367516622785,
        "Mean Anomaly(deg)": -53.67248323622524,
        "RAAN(deg)": 69.99201906634488,
        "Satellite Name": "Test1 326",
        "Satellite Number": 326,
        "Semi-Major Axis(m)": 6980739.136638005,
        "Time(s)": 190
    }
]